{
  "norad_id": 63664,
  "name": "STARLINK-11651 [DTC]",
  "history": [
    {
      "epoch": "2026-03-28T14:58:16.067712Z",
      "apogee_km": 358.65017166811595,
      "perigee_km": 353.59678260607234,
      "latitude_deg": 1.6775937908915685e-05,
      "longitude_deg": 113.32709081116506,
      "height_km": 355.43966690512383,
      "semi_major_axis_km": 6734.260477137094,
      "eccentricity": 0.0003752,
      "inclination_deg": 43.0014,
      "raan_deg": 163.9356,
      "arg_perigee_deg": 280.4439,
      "mean_anomaly_deg": 79.6006,
      "mean_motion_rev_day": 15.70970016
    },
    {
      "epoch": "2026-03-30T05:07:16.597920Z",
      "apogee_km": 357.7344664203756,
      "perigee_km": 354.98544476310326,
      "latitude_deg": 1.7602829966787934e-06,
      "longitude_deg": -110.07360466779764,
      "height_km": 355.36072622407323,
      "semi_major_axis_km": 6734.49695559174,
      "eccentricity": 0.0002041,
      "inclination_deg": 43.0009,
      "raan_deg": 154.3539,
      "arg_perigee_deg": 304.1764,
      "mean_anomaly_deg": 55.891,
      "mean_motion_rev_day": 15.70887271
    },
    {
      "epoch": "2026-03-30T05:07:16.598784Z",
      "apogee_km": 357.7344664203756,
      "perigee_km": 354.98544476310326,
      "latitude_deg": 1.7602832755357948e-06,
      "longitude_deg": -110.07360827765307,
      "height_km": 355.36072622407124,
      "semi_major_axis_km": 6734.49695559174,
      "eccentricity": 0.0002041,
      "inclination_deg": 43.0009,
      "raan_deg": 154.3539,
      "arg_perigee_deg": 304.1764,
      "mean_anomaly_deg": 55.891,
      "mean_motion_rev_day": 15.70887271
    },
    {
      "epoch": "2026-03-30T11:13:31.449504Z",
      "apogee_km": 357.58680369292597,
      "perigee_km": 355.4621526897872,
      "latitude_deg": 2.3749474431122747e-05,
      "longitude_deg": 156.5850499500711,
      "height_km": 355.6771758709018,
      "semi_major_axis_km": 6734.661478191357,
      "eccentricity": 0.00015774,
      "inclination_deg": 43.0002,
      "raan_deg": 152.8251,
      "arg_perigee_deg": 305.6901,
      "mean_anomaly_deg": 54.382,
      "mean_motion_rev_day": 15.70829708
    },
    {
      "epoch": "2026-03-31T20:47:51.904608Z",
      "apogee_km": 357.6349763118069,
      "perigee_km": 355.1674415120615,
      "latitude_deg": -2.0742004910393973e-05,
      "longitude_deg": 3.186907372252236,
      "height_km": 355.4300502940399,
      "semi_major_axis_km": 6734.538208911934,
      "eccentricity": 0.0001832,
      "inclination_deg": 42.9998,
      "raan_deg": 144.391,
      "arg_perigee_deg": 53.1013,
      "mean_anomaly_deg": 307.0022,
      "mean_motion_rev_day": 15.70872837
    },
    {
      "epoch": "2026-04-01T19:41:13.948512Z",
      "apogee_km": 357.5594135030733,
      "perigee_km": 354.5519230574191,
      "latitude_deg": 3.741756790305919e-05,
      "longitude_deg": 13.154384404536968,
      "height_km": 355.07176190305853,
      "semi_major_axis_km": 6734.192668280246,
      "eccentricity": 0.0002233,
      "inclination_deg": 43.0024,
      "raan_deg": 138.6403,
      "arg_perigee_deg": 300.232,
      "mean_anomaly_deg": 59.8327,
      "mean_motion_rev_day": 15.70993744
    },
    {
      "epoch": "2026-04-02T12:28:22.855008Z",
      "apogee_km": 357.00231524585615,
      "perigee_km": 355.81218658583475,
      "latitude_deg": -4.427153924240751e-06,
      "longitude_deg": 116.46306135872855,
      "height_km": 356.0185869095171,
      "semi_major_axis_km": 6734.544250915846,
      "eccentricity": 8.836e-05,
      "inclination_deg": 42.9996,
      "raan_deg": 134.4255,
      "arg_perigee_deg": 285.6585,
      "mean_anomaly_deg": 74.4185,
      "mean_motion_rev_day": 15.70870723
    },
    {
      "epoch": "2026-04-04T11:46:44.592960Z",
      "apogee_km": 357.0591111810327,
      "perigee_km": 355.44635952721,
      "latitude_deg": -2.768916378898264e-05,
      "longitude_deg": 113.04817158667699,
      "height_km": 356.0321099641421,
      "semi_major_axis_km": 6734.3897353541215,
      "eccentricity": 0.00011974,
      "inclination_deg": 42.9993,
      "raan_deg": 122.544,
      "arg_perigee_deg": 269.4895,
      "mean_anomaly_deg": 90.5835,
      "mean_motion_rev_day": 15.70924787
    },
    {
      "epoch": "2026-04-05T03:02:20.364576Z",
      "apogee_km": 359.5826941447831,
      "perigee_km": 353.58434796549955,
      "latitude_deg": 5.9855313191421934e-06,
      "longitude_deg": -120.31154494009277,
      "height_km": 354.7838529464094,
      "semi_major_axis_km": 6734.720521055141,
      "eccentricity": 0.00044533,
      "inclination_deg": 42.9999,
      "raan_deg": 118.71,
      "arg_perigee_deg": 301.6542,
      "mean_anomaly_deg": 58.3891,
      "mean_motion_rev_day": 15.70809051
    },
    {
      "epoch": "2026-04-05T18:17:57.071904Z",
      "apogee_km": 357.22380563801835,
      "perigee_km": 354.87761463980587,
      "latitude_deg": 1.8141855044484771e-06,
      "longitude_deg": 6.326688272845711,
      "height_km": 355.0663634924703,
      "semi_major_axis_km": 6734.187710138912,
      "eccentricity": 0.0001742,
      "inclination_deg": 43.0,
      "raan_deg": 114.8779,
      "arg_perigee_deg": 310.1775,
      "mean_anomaly_deg": 49.894,
      "mean_motion_rev_day": 15.70995479
    }
  ]
}